OBJECT_NAME,OBJECT_ID,EPOCH,MEAN_MOTION,ECCENTRICITY,INCLINATION,RA_OF_ASC_NODE,ARG_OF_PERICENTER,MEAN_ANOMALY,EPHEMERIS_TYPE,CLASSIFICATION_TYPE,NORAD_CAT_ID,ELEMENT_SET_NO,REV_AT_EPOCH,BSTAR,MEAN_MOTION_DOT,MEAN_MOTION_DDOT
LEMUR-2-MJR092620,2023-174CN,2024-07-08T02:58:56.509824,15.21195744,.0011857,97.4581,264.9204,128.8412,231.3884,0,U,58340,999,3691,.50263E-3,.11168E-3,0
