0 LEMUR 2 MJR092620
1 58340U 23174CN  24190.12426516  .00011168  00000-0  50263-3 0  9996
2 58340  97.4581 264.9204 0011857 128.8412 231.3884 15.21195744 36918
